{
  "type": "FeatureCollection",
  "features": [
    {
      "type": "Feature",
      "properties": {
        "norad_id": 44709,
        "name": "BEIDOU-3 IGSO-3 (C40)",
        "group": "beidou",
        "lat": 54.40736084661401,
        "lon": -0.5893777102951848,
        "alt_km": 35849.79196017073,
        "timestamp": "2025-12-09T11:33:55.065173+00:00",
        "meta_object_name": "BEIDOU-3 IGSO-3 (C40)",
        "meta_object_id": "2019-073A",
        "meta_epoch": "2025-11-20T07:11:22.740000",
        "meta_mean_motion": 1.00250097,
        "meta_eccentricity": 0.0044538,
        "meta_inclination": 55.163,
        "meta_ra_of_asc_node": 283.159,
        "meta_arg_of_pericenter": 191.5856,
        "meta_mean_anomaly": 168.2409,
        "meta_ephemeris_type": 0,
        "meta_classification_type": "U",
        "meta_norad_cat_id": 44709,
        "meta_element_set_no": 999,
        "meta_rev_at_epoch": 2236,
        "meta_bstar": 0,
        "meta_mean_motion_dot": -2.06e-06,
        "meta_mean_motion_ddot": 0,
        "tle_line1": "1 44709U 19073A   25324.29956875 -.00000206  00000+0  00000+0 0  9998",
        "tle_line2": "2 44709  55.1630 283.1590 0044538 191.5856 168.2409  1.00250097 22360"
      },
      "geometry": {
        "type": "Point",
        "coordinates": [
          -0.5893777102951848,
          54.40736084661401
        ]
      }
    },
    {
      "type": "Feature",
      "properties": {
        "norad_id": 44793,
        "name": "BEIDOU-3 M22 (C44)",
        "group": "beidou",
        "lat": -29.370215591490442,
        "lon": -77.54628667759444,
        "alt_km": 21523.94637132193,
        "timestamp": "2025-12-09T11:33:55.065187+00:00",
        "meta_object_name": "BEIDOU-3 M22 (C44)",
        "meta_object_id": "2019-078A",
        "meta_epoch": "2025-12-09T00:00:40.080096",
        "meta_mean_motion": 1.86231694,
        "meta_eccentricity": 0.0005608,
        "meta_inclination": 54.1119,
        "meta_ra_of_asc_node": 306.5176,
        "meta_arg_of_pericenter": 23.0098,
        "meta_mean_anomaly": 337.0045,
        "meta_ephemeris_type": 0,
        "meta_classification_type": "U",
        "meta_norad_cat_id": 44793,
        "meta_element_set_no": 999,
        "meta_rev_at_epoch": 4110,
        "meta_bstar": 0,
        "meta_mean_motion_dot": -7.5e-07,
        "meta_mean_motion_ddot": 0,
        "tle_line1": "1 44793U 19078A   25343.00046389 -.00000075  00000+0  00000+0 0  9990",
        "tle_line2": "2 44793  54.1119 306.5176 0005608  23.0098 337.0045  1.86231694 41107"
      },
      "geometry": {
        "type": "Point",
        "coordinates": [
          -77.54628667759444,
          -29.370215591490442
        ]
      }
    },
    {
      "type": "Feature",
      "properties": {
        "norad_id": 44794,
        "name": "BEIDOU-3 M21 (C43)",
        "group": "beidou",
        "lat": -38.7041855589468,
        "lon": 161.91765991497283,
        "alt_km": 21541.12558498861,
        "timestamp": "2025-12-09T11:33:55.065198+00:00",
        "meta_object_name": "BEIDOU-3 M21 (C43)",
        "meta_object_id": "2019-078B",
        "meta_epoch": "2025-12-08T14:25:34.118976",
        "meta_mean_motion": 1.86227419,
        "meta_eccentricity": 0.00038351,
        "meta_inclination": 54.0855,
        "meta_ra_of_asc_node": 306.4969,
        "meta_arg_of_pericenter": 9.829,
        "meta_mean_anomaly": 350.1669,
        "meta_ephemeris_type": 0,
        "meta_classification_type": "U",
        "meta_norad_cat_id": 44794,
        "meta_element_set_no": 999,
        "meta_rev_at_epoch": 4110,
        "meta_bstar": 0,
        "meta_mean_motion_dot": -7.4e-07,
        "meta_mean_motion_ddot": 0,
        "tle_line1": "1 44794U 19078B   25342.60108934 -.00000074  00000+0  00000+0 0  9990",
        "tle_line2": "2 44794  54.0855 306.4969 0003835   9.8290 350.1669  1.86227419 41107"
      },
      "geometry": {
        "type": "Point",
        "coordinates": [
          161.91765991497283,
          -38.7041855589468
        ]
      }
    },
    {
      "type": "Feature",
      "properties": {
        "norad_id": 44864,
        "name": "BEIDOU-3 M19 (C41)",
        "group": "beidou",
        "lat": 49.74145839534497,
        "lon": 120.7322527055187,
        "alt_km": 21560.409986546467,
        "timestamp": "2025-12-09T11:33:55.065209+00:00",
        "meta_object_name": "BEIDOU-3 M19 (C41)",
        "meta_object_id": "2019-090A",
        "meta_epoch": "2025-12-02T22:27:31.551840",
        "meta_mean_motion": 1.86231053,
        "meta_eccentricity": 0.00175607,
        "meta_inclination": 56.3847,
        "meta_ra_of_asc_node": 69.2872,
        "meta_arg_of_pericenter": 284.9296,
        "meta_mean_anomaly": 72.494,
        "meta_ephemeris_type": 0,
        "meta_classification_type": "U",
        "meta_norad_cat_id": 44864,
        "meta_element_set_no": 999,
        "meta_rev_at_epoch": 4057,
        "meta_bstar": 0,
        "meta_mean_motion_dot": -4.9e-07,
        "meta_mean_motion_ddot": 0,
        "tle_line1": "1 44864U 19090A   25336.93578185 -.00000049  00000+0  00000+0 0  9992",
        "tle_line2": "2 44864  56.3847  69.2872 0017560 284.9296  72.4940  1.86231053 40575"
      },
      "geometry": {
        "type": "Point",
        "coordinates": [
          120.7322527055187,
          49.74145839534497
        ]
      }
    },
    {
      "type": "Feature",
      "properties": {
        "norad_id": 44865,
        "name": "BEIDOU-3 M20 (C42)",
        "group": "beidou",
        "lat": 19.982119061801345,
        "lon": -124.86054494697642,
        "alt_km": 21558.478569115818,
        "timestamp": "2025-12-09T11:33:55.065220+00:00",
        "meta_object_name": "BEIDOU-3 M20 (C42)",
        "meta_object_id": "2019-090B",
        "meta_epoch": "2025-12-08T06:57:34.455168",
        "meta_mean_motion": 1.8623116,
        "meta_eccentricity": 0.00149301,
        "meta_inclination": 56.3913,
        "meta_ra_of_asc_node": 69.143,
        "meta_arg_of_pericenter": 297.776,
        "meta_mean_anomaly": 138.9742,
        "meta_ephemeris_type": 0,
        "meta_classification_type": "U",
        "meta_norad_cat_id": 44865,
        "meta_element_set_no": 999,
        "meta_rev_at_epoch": 4066,
        "meta_bstar": 0,
        "meta_mean_motion_dot": -4.5e-07,
        "meta_mean_motion_ddot": 0,
        "tle_line1": "1 44865U 19090B   25342.28998212 -.00000045  00000+0  00000+0 0  9991",
        "tle_line2": "2 44865  56.3913  69.1430 0014930 297.7760 138.9742  1.86231160 40662"
      },
      "geometry": {
        "type": "Point",
        "coordinates": [
          -124.86054494697642,
          19.982119061801345
        ]
      }
    },
    {
      "type": "Feature",
      "properties": {
        "norad_id": 45344,
        "name": "BEIDOU-3 G2 (C60)",
        "group": "beidou",
        "lat": -2.372106904902935,
        "lon": -28.000551376310323,
        "alt_km": 35769.10165729614,
        "timestamp": "2025-12-09T11:33:55.065231+00:00",
        "meta_object_name": "BEIDOU-3 G2 (C60)",
        "meta_object_id": "2020-017A",
        "meta_epoch": "2025-12-08T17:24:33.367680",
        "meta_mean_motion": 1.00273181,
        "meta_eccentricity": 0.00043587,
        "meta_inclination": 2.49,
        "meta_ra_of_asc_node": 43.8378,
        "meta_arg_of_pericenter": 265.5358,
        "meta_mean_anomaly": 109.5017,
        "meta_ephemeris_type": 0,
        "meta_classification_type": "U",
        "meta_norad_cat_id": 45344,
        "meta_element_set_no": 999,
        "meta_rev_at_epoch": 2135,
        "meta_bstar": 0,
        "meta_mean_motion_dot": -1.39e-06,
        "meta_mean_motion_ddot": 0,
        "tle_line1": "1 45344U 20017A   25342.72538620 -.00000139  00000+0  00000+0 0  9991",
        "tle_line2": "2 45344   2.4900  43.8378 0004358 265.5358 109.5017  1.00273181 21351"
      },
      "geometry": {
        "type": "Point",
        "coordinates": [
          -28.000551376310323,
          -2.372106904902935
        ]
      }
    },
    {
      "type": "Feature",
      "properties": {
        "norad_id": 45807,
        "name": "BEIDOU-3 G3 (C61)",
        "group": "beidou",
        "lat": -1.778673543103991,
        "lon": 2.4726803002678555,
        "alt_km": 35760.38265897274,
        "timestamp": "2025-12-09T11:33:55.065243+00:00",
        "meta_object_name": "BEIDOU-3 G3 (C61)",
        "meta_object_id": "2020-040A",
        "meta_epoch": "2025-12-08T17:33:17.532288",
        "meta_mean_motion": 1.00275813,
        "meta_eccentricity": 0.00060306,
        "meta_inclination": 1.9816,
        "meta_ra_of_asc_node": 66.5886,
        "meta_arg_of_pericenter": 306.262,
        "meta_mean_anomaly": 78.7159,
        "meta_ephemeris_type": 0,
        "meta_classification_type": "U",
        "meta_norad_cat_id": 45807,
        "meta_element_set_no": 999,
        "meta_rev_at_epoch": 2016,
        "meta_bstar": 0,
        "meta_mean_motion_dot": -3.52e-06,
        "meta_mean_motion_ddot": 0,
        "tle_line1": "1 45807U 20040A   25342.73145292 -.00000352  00000+0  00000+0 0  9998",
        "tle_line2": "2 45807   1.9816  66.5886 0006030 306.2620  78.7159  1.00275813 20161"
      },
      "geometry": {
        "type": "Point",
        "coordinates": [
          2.4726803002678555,
          -1.778673543103991
        ]
      }
    }
  ]
}